{"type":"FeatureCollection","features":[{"type":"Feature","geometry":{"type":"Polygon","coordinates":[[[-117.91999,33.946081],[-117.919989,33.924616],[-117.924336,33.924395],[-117.915627,33.917362],[-117.911352,33.906684],[-117.887959,33.907107],[-117.876721,33.910784],[-117.863877,33.907404],[-117.846,33.905738],[-117.842413,33.910146],[-117.835076,33.918439],[-117.826753,33.918252],[-117.809157,33.918017],[-117.809131,33.922381],[-117.791678,33.924901],[-117.783068,33.928373],[-117.782939,33.946147],[-117.800311,33.946626],[-117.801767,33.932327],[-117.813328,33.932402],[-117.817866,33.920517],[-117.828247,33.920644],[-117.828097,33.927883],[-117.848575,33.934225],[-117.871833,33.935591],[-117.879927,33.940311],[-117.892945,33.936533],[-117.904057,33.939193],[-117.90564,33.945293],[-117.91999,33.946081]]]},"properties":{"name":"Brea","type":"city","site_count":1}},{"type":"Feature","geometry":{"type":"Polygon","coordinates":[[[-117.867728,33.691939],[-117.864008,33.686248],[-117.856947,33.683123],[-117.864029,33.671739],[-117.854284,33.666129],[-117.862803,33.657568],[-117.85876,33.64083],[-117.84882,33.63324],[-117.83458,33.62857],[-117.82211,33.62071],[-117.81408,33.61104],[-117.799159,33.607081],[-117.776232,33.599599],[-117.774352,33.618393],[-117.756962,33.625289],[-117.74626,33.621156],[-117.741219,33.63105],[-117.720888,33.628334],[-117.710373,33.646634],[-117.699542,33.659451],[-117.695582,33.664157],[-117.678029,33.685031],[-117.698413,33.698024],[-117.722967,33.709448],[-117.727419,33.703893],[-117.737843,33.711512],[-117.731463,33.717945],[-117.719044,33.72004],[-117.716918,33.732867],[-117.706817,33.740489],[-117.717063,33.748526],[-117.730837,33.754343],[-117.741503,33.753908],[-117.741633,33.760744],[-117.757771,33.770602],[-117.75853,33.773607],[-117.759796,33.76469],[-117.76685,33.74888],[-117.790656,33.723747],[-117.797933,33.721771],[-117.80322,33.71508],[-117.799807,33.703803],[-117.808412,33.695007],[-117.819631,33.700577],[-117.826565,33.694052],[-117.843253,33.705584],[-117.848728,33.700077],[-117.855434,33.704699],[-117.867728,33.691939]]]},"properties":{"name":"Irvine","type":"city","site_count":1}},{"type":"Feature","geometry":{"type":"Polygon","coordinates":[[[-117.976563,33.917418],[-117.976575,33.906406],[-117.950039,33.906468],[-117.93238,33.913703],[-117.933042,33.924608],[-117.924336,33.924395],[-117.919989,33.924616],[-117.91999,33.946081],[-117.976498,33.94605],[-117.976563,33.917418]]]},"properties":{"name":"La Habra","type":"city","site_count":0}},{"type":"Feature","geometry":{"type":"Polygon","coordinates":[[[-118.011806,33.809982],[-118.011048,33.799187],[-118.001651,33.799233],[-117.999285,33.791971],[-117.998724,33.774693],[-117.988302,33.773819],[-117.986612,33.788409],[-117.988556,33.795667],[-117.988819,33.800745],[-117.977283,33.803051],[-117.976447,33.803058],[-117.975638,33.803066],[-117.973486,33.805667],[-117.971919,33.805689],[-117.971937,33.810361],[-117.980182,33.813925],[-117.995512,33.815646],[-118.011806,33.809982]]]},"properties":{"name":"Stanton","type":"city","site_count":2}},{"type":"Feature","geometry":{"type":"Polygon","coordinates":[[[-117.831401,33.772952],[-117.831401,33.750341],[-117.834398,33.744666],[-117.843481,33.741966],[-117.842514,33.73377],[-117.83353,33.73384],[-117.834055,33.726043],[-117.84465,33.71555],[-117.83764,33.71126],[-117.843253,33.705584],[-117.826565,33.694052],[-117.819631,33.700577],[-117.808412,33.695007],[-117.799807,33.703803],[-117.80322,33.71508],[-117.797933,33.721771],[-117.790656,33.723747],[-117.76685,33.74888],[-117.759796,33.76469],[-117.75853,33.773607],[-117.758542,33.773606],[-117.764236,33.773496],[-117.774478,33.763199],[-117.777596,33.754452],[-117.777995,33.754049],[-117.795937,33.738866],[-117.802003,33.738384],[-117.80954,33.75075],[-117.822431,33.752254],[-117.820409,33.76349],[-117.829827,33.767149],[-117.83006,33.773067],[-117.831401,33.772952]]]},"properties":{"name":"Tustin","type":"city","site_count":2}},{"type":"Feature","geometry":{"type":"Polygon","coordinates":[[[-118.028717,33.866242],[-118.037598,33.866013],[-118.046188,33.858688],[-118.046082,33.853611],[-118.05892,33.846196],[-118.041422,33.835541],[-118.034946,33.83907],[-118.028622,33.850894],[-118.028717,33.866242]]]},"properties":{"name":"La Palma","type":"city","site_count":1}},{"type":"Feature","geometry":{"type":"Polygon","coordinates":[[[-118.06317,33.819681],[-118.072833,33.814856],[-118.084744,33.80291],[-118.093029,33.786121],[-118.089243,33.785021],[-118.086143,33.796404],[-118.08095,33.80299],[-118.07196,33.80303],[-118.07201,33.78757],[-118.067643,33.781321],[-118.041727,33.781167],[-118.03711,33.792097],[-118.03709,33.80305],[-118.05445,33.80315],[-118.05455,33.81031],[-118.063052,33.810423],[-118.06317,33.819681]]]},"properties":{"name":"Los Alamitos","type":"city","site_count":1}},{"type":"Feature","geometry":{"type":"Polygon","coordinates":[[[-117.624204,33.672756],[-117.644109,33.658565],[-117.653189,33.656355],[-117.660642,33.644035],[-117.695724,33.613389],[-117.69466,33.606812],[-117.67449,33.59631],[-117.673225,33.578033],[-117.67638,33.568626],[-117.672571,33.568492],[-117.674132,33.543135],[-117.658992,33.533833],[-117.659017,33.55605],[-117.65449,33.562858],[-117.642758,33.577462],[-117.639435,33.587098],[-117.637151,33.596667],[-117.627754,33.612405],[-117.626577,33.636805],[-117.62492,33.639604],[-117.624933,33.669842],[-117.62138,33.668879],[-117.624204,33.672756]]]},"properties":{"name":"Mission Viejo","type":"city","site_count":6}},{"type":"Feature","geometry":{"type":"Polygon","coordinates":[[[-117.62138,33.668879],[-117.624933,33.669842],[-117.62492,33.639604],[-117.626577,33.636805],[-117.627754,33.612405],[-117.637151,33.596667],[-117.630194,33.595163],[-117.615604,33.60168],[-117.618814,33.587285],[-117.61102,33.58676],[-117.601563,33.589673],[-117.595049,33.598924],[-117.596698,33.619656],[-117.584051,33.639312],[-117.574005,33.638295],[-117.569027,33.618351],[-117.573563,33.609174],[-117.566299,33.612672],[-117.555114,33.64261],[-117.556225,33.664646],[-117.564938,33.66462],[-117.564899,33.657432],[-117.582747,33.658301],[-117.59909,33.649],[-117.608768,33.655641],[-117.606659,33.664884],[-117.62138,33.668879]]]},"properties":{"name":"Rancho Santa Margarita","type":"city","site_count":1}},{"type":"Feature","geometry":{"type":"Polygon","coordinates":[[[-117.612493,33.483496],[-117.625525,33.478569],[-117.638045,33.481081],[-117.642641,33.471767],[-117.649566,33.467073],[-117.666447,33.466926],[-117.654956,33.463284],[-117.65997,33.45447],[-117.651322,33.448941],[-117.64492,33.440216],[-117.623281,33.417528],[-117.607889,33.403581],[-117.596203,33.386895],[-117.57848,33.453927],[-117.571443,33.455976],[-117.573425,33.483423],[-117.582921,33.49077],[-117.594318,33.484288],[-117.612493,33.483496]]]},"properties":{"name":"San Clemente","type":"city","site_count":1}},{"type":"Feature","geometry":{"type":"Polygon","coordinates":[[[-118.117803,33.739655],[-118.097474,33.737066],[-118.079718,33.723107],[-118.070572,33.729758],[-118.0417,33.729937],[-118.041914,33.749684],[-118.042457,33.774036],[-118.041727,33.781167],[-118.067643,33.781321],[-118.07201,33.78757],[-118.079396,33.774872],[-118.089117,33.777917],[-118.089243,33.785021],[-118.093029,33.786121],[-118.09706,33.773723],[-118.09197,33.758472],[-118.113237,33.746985],[-118.117803,33.739655]]]},"properties":{"name":"Seal Beach","type":"city","site_count":0}},{"type":"Feature","geometry":{"type":"Polygon","coordinates":[[[-117.798847,33.813123],[-117.793782,33.826439],[-117.805055,33.830168],[-117.81288,33.824959],[-117.826261,33.823666],[-117.820253,33.805964],[-117.815703,33.80226],[-117.80892,33.810681],[-117.798847,33.813123]]]},"properties":{"name":"Villa Park","type":"city","site_count":0}},{"type":"Feature","geometry":{"type":"Polygon","coordinates":[[[-117.757171,33.585643],[-117.746017,33.582351],[-117.740857,33.572017],[-117.743549,33.562843],[-117.729346,33.545035],[-117.721042,33.550643],[-117.71427,33.57122],[-117.700836,33.56977],[-117.716417,33.597616],[-117.722436,33.607121],[-117.739242,33.60724],[-117.748063,33.597735],[-117.757171,33.585643]]]},"properties":{"name":"Aliso Viejo","type":"city","site_count":3}},{"type":"Feature","geometry":{"type":"Polygon","coordinates":[[[-118.041914,33.749684],[-118.0417,33.729937],[-118.070572,33.729758],[-118.079718,33.723107],[-118.054319,33.70179],[-118.032133,33.679231],[-118.034286,33.671683],[-118.020093,33.664883],[-117.987724,33.643715],[-117.958939,33.627929],[-117.954106,33.643183],[-117.953927,33.643734],[-117.951313,33.650644],[-117.950844,33.652302],[-117.950686,33.652857],[-117.945132,33.672386],[-117.94044,33.68681],[-117.98012,33.686783],[-117.98054,33.71567],[-117.971917,33.719843],[-117.989073,33.730283],[-117.993853,33.737457],[-117.993909,33.741059],[-118.00691,33.73735],[-118.00698,33.74444],[-118.024657,33.755342],[-118.03335,33.755295],[-118.041914,33.749684]],[[-118.063961,33.711524],[-118.052088,33.711551],[-118.046816,33.706922],[-118.038937,33.708009],[-118.020905,33.695015],[-118.01814,33.68914],[-118.026731,33.682711],[-118.034358,33.682143],[-118.053003,33.70195],[-118.063961,33.711524]]]},"properties":{"name":"Huntington Beach","type":"city","site_count":0}},{"type":"Feature","geometry":{"type":"Polygon","coordinates":[[[-117.699542,33.659451],[-117.710373,33.646634],[-117.720888,33.628334],[-117.7034,33.61096],[-117.69466,33.606812],[-117.695724,33.613389],[-117.660642,33.644035],[-117.653189,33.656355],[-117.644109,33.658565],[-117.624204,33.672756],[-117.623199,33.674801],[-117.6206,33.68314],[-117.628244,33.692852],[-117.642017,33.70378],[-117.654887,33.706675],[-117.678029,33.685031],[-117.695582,33.664157],[-117.699542,33.659451]]]},"properties":{"name":"Lake Forest","type":"city","site_count":1}},{"type":"Feature","geometry":{"type":"Polygon","coordinates":[[[-118.028717,33.866242],[-118.028622,33.850894],[-118.034946,33.83907],[-118.032669,33.831789],[-118.019656,33.830813],[-118.019514,33.817166],[-118.0281,33.81703],[-118.02806,33.80983],[-118.01727,33.80993],[-118.017393,33.822669],[-118.01312,33.830439],[-118.002263,33.835678],[-117.986078,33.835785],[-117.980495,33.839506],[-117.983016,33.857721],[-117.985151,33.875529],[-117.976403,33.873941],[-117.976629,33.895561],[-117.985327,33.895603],[-117.994057,33.888218],[-118.002855,33.888161],[-118.002754,33.880894],[-118.011474,33.880846],[-118.011383,33.873431],[-118.028782,33.873322],[-118.028717,33.866242]]]},"properties":{"name":"Buena Park","type":"city","site_count":1}},{"type":"Feature","geometry":{"type":"Polygon","coordinates":[[[-117.732269,33.498128],[-117.731868,33.484591],[-117.726724,33.48353],[-117.715144,33.464598],[-117.714617,33.459914],[-117.691355,33.454279],[-117.689519,33.461167],[-117.681688,33.461572],[-117.658306,33.449494],[-117.64492,33.440216],[-117.651322,33.448941],[-117.65997,33.45447],[-117.654956,33.463284],[-117.666447,33.466926],[-117.679342,33.469056],[-117.678126,33.478271],[-117.685367,33.480771],[-117.686633,33.487293],[-117.700054,33.491228],[-117.708103,33.488829],[-117.716841,33.494476],[-117.732269,33.498128]]]},"properties":{"name":"Dana Point","type":"city","site_count":0}},{"type":"Feature","geometry":{"type":"Polygon","coordinates":[[[-117.971917,33.719843],[-117.98054,33.71567],[-117.98012,33.686783],[-117.94044,33.68681],[-117.920556,33.717423],[-117.915345,33.728826],[-117.936588,33.730846],[-117.941656,33.733508],[-117.945982,33.732483],[-117.963381,33.732639],[-117.971958,33.730284],[-117.971917,33.719843]]]},"properties":{"name":"Fountain Valley","type":"city","site_count":2}},{"type":"Feature","geometry":{"type":"Polygon","coordinates":[[[-117.756355,33.610298],[-117.761578,33.599609],[-117.760394,33.588483],[-117.764648,33.564459],[-117.772635,33.562281],[-117.78133,33.54889],[-117.806422,33.552198],[-117.807017,33.544423],[-117.793788,33.542325],[-117.780788,33.534425],[-117.756343,33.50969],[-117.738687,33.487127],[-117.731868,33.484591],[-117.732269,33.498128],[-117.734778,33.509134],[-117.739173,33.512817],[-117.740991,33.525268],[-117.749433,33.525232],[-117.75416,33.530519],[-117.74943,33.5416],[-117.749371,33.58194],[-117.757171,33.585643],[-117.748063,33.597735],[-117.756355,33.610298]]]},"properties":{"name":"Laguna Beach","type":"city","site_count":0}},{"type":"Feature","geometry":{"type":"Polygon","coordinates":[[[-117.74626,33.621156],[-117.738971,33.613274],[-117.73132,33.6211],[-117.714376,33.620996],[-117.712822,33.609879],[-117.70301,33.60365],[-117.70676,33.59321],[-117.716417,33.597616],[-117.700836,33.56977],[-117.685465,33.557372],[-117.67645,33.563528],[-117.67638,33.568626],[-117.673225,33.578033],[-117.67449,33.59631],[-117.69466,33.606812],[-117.7034,33.61096],[-117.720888,33.628334],[-117.741219,33.63105],[-117.74626,33.621156]]]},"properties":{"name":"Laguna Hills","type":"city","site_count":3}},{"type":"Feature","geometry":{"type":"Polygon","coordinates":[[[-117.756962,33.625289],[-117.756355,33.610298],[-117.748063,33.597735],[-117.739242,33.60724],[-117.722436,33.607121],[-117.716417,33.597616],[-117.70676,33.59321],[-117.70301,33.60365],[-117.712822,33.609879],[-117.714376,33.620996],[-117.73132,33.6211],[-117.738971,33.613274],[-117.74626,33.621156],[-117.756962,33.625289]]]},"properties":{"name":"Laguna Woods","type":"city","site_count":0}},{"type":"Feature","geometry":{"type":"Polygon","coordinates":[[[-117.739173,33.512817],[-117.734778,33.509134],[-117.732269,33.498128],[-117.716841,33.494476],[-117.708103,33.488829],[-117.700054,33.491228],[-117.686633,33.487293],[-117.683879,33.500545],[-117.677542,33.506139],[-117.679159,33.517954],[-117.683384,33.524656],[-117.682454,33.538292],[-117.674132,33.543135],[-117.672571,33.568492],[-117.67638,33.568626],[-117.67645,33.563528],[-117.685465,33.557372],[-117.700836,33.56977],[-117.71427,33.57122],[-117.721042,33.550643],[-117.721135,33.543188],[-117.726683,33.538872],[-117.737001,33.539551],[-117.738257,33.532475],[-117.733153,33.520132],[-117.739173,33.512817]]]},"properties":{"name":"Laguna Niguel","type":"city","site_count":0}},{"type":"Feature","geometry":{"type":"Polygon","coordinates":[[[-117.983016,33.857721],[-117.980495,33.839506],[-117.986078,33.835785],[-118.002263,33.835678],[-118.01312,33.830439],[-118.017393,33.822669],[-118.01727,33.80993],[-118.011806,33.809982],[-117.995512,33.815646],[-117.980182,33.813925],[-117.971937,33.810361],[-117.958914,33.814687],[-117.963222,33.803098],[-117.941416,33.803081],[-117.941242,33.792296],[-117.934724,33.792333],[-117.928279,33.798742],[-117.91735,33.796081],[-117.914886,33.788947],[-117.904126,33.792502],[-117.881262,33.79305],[-117.87191,33.812862],[-117.863438,33.835463],[-117.849924,33.845428],[-117.836401,33.84713],[-117.834474,33.839099],[-117.821582,33.834519],[-117.814328,33.838291],[-117.801773,33.838772],[-117.776412,33.830619],[-117.765207,33.834603],[-117.760576,33.827478],[-117.747166,33.825781],[-117.732363,33.843189],[-117.722326,33.841466],[-117.720637,33.829992],[-117.71474,33.827044],[-117.702667,33.829004],[-117.702527,33.83674],[-117.697301,33.845175],[-117.697277,33.856181],[-117.688495,33.853405],[-117.68666,33.860203],[-117.675092,33.869172],[-117.683921,33.870973],[-117.697252,33.872904],[-117.710857,33.86701],[-117.725612,33.867302],[-117.744563,33.870242],[-117.75,33.87733],[-117.77098,33.87192],[-117.781068,33.863475],[-117.79127,33.865557],[-117.802943,33.874061],[-117.817293,33.870188],[-117.818433,33.862044],[-117.828315,33.861018],[-117.837107,33.868172],[-117.865298,33.868656],[-117.868801,33.857738],[-117.884977,33.853613],[-117.883132,33.859742],[-117.906713,33.854223],[-117.90687,33.86319],[-117.919884,33.863115],[-117.919887,33.854541],[-117.967937,33.854258],[-117.983016,33.857721]]]},"properties":{"name":"Anaheim","type":"city","site_count":25}},{"type":"Feature","geometry":{"type":"Polygon","coordinates":[[[-117.953927,33.643734],[-117.954106,33.643183],[-117.945125,33.643342],[-117.943627,33.643334],[-117.942751,33.637427],[-117.939368,33.632422],[-117.927509,33.632079],[-117.917574,33.625171],[-117.911464,33.625644],[-117.899232,33.637953],[-117.898615,33.648576],[-117.890467,33.652359],[-117.889899,33.652937],[-117.888398,33.654447],[-117.887626,33.660984],[-117.88324,33.665397],[-117.879409,33.663573],[-117.864008,33.686248],[-117.867728,33.691939],[-117.86822,33.69408],[-117.89217,33.6964],[-117.9194,33.69559],[-117.91946,33.70209],[-117.929533,33.701981],[-117.939284,33.687082],[-117.945132,33.672386],[-117.950686,33.652857],[-117.950844,33.652302],[-117.951313,33.650644],[-117.953927,33.643734]]]},"properties":{"name":"Costa Mesa","type":"city","site_count":10}},{"type":"Feature","geometry":{"type":"Polygon","coordinates":[[[-118.06123,33.833314],[-118.06317,33.819681],[-118.063052,33.810423],[-118.05455,33.81031],[-118.05445,33.80315],[-118.03709,33.80305],[-118.03711,33.792097],[-118.011085,33.791998],[-118.011048,33.799187],[-118.011806,33.809982],[-118.01727,33.80993],[-118.02806,33.80983],[-118.0281,33.81703],[-118.019514,33.817166],[-118.019656,33.830813],[-118.032669,33.831789],[-118.034946,33.83907],[-118.041422,33.835541],[-118.05892,33.846196],[-118.06123,33.833314]]]},"properties":{"name":"Cypress","type":"city","site_count":0}},{"type":"Feature","geometry":{"type":"Polygon","coordinates":[[[-117.976575,33.906406],[-117.985405,33.902766],[-117.985327,33.895603],[-117.976629,33.895561],[-117.976403,33.873941],[-117.985151,33.875529],[-117.983016,33.857721],[-117.967937,33.854258],[-117.919887,33.854541],[-117.919884,33.863115],[-117.90687,33.86319],[-117.906713,33.854223],[-117.883132,33.859742],[-117.876958,33.880973],[-117.86738,33.88275],[-117.86544,33.88931],[-117.87305,33.89187],[-117.87245,33.90367],[-117.863877,33.907404],[-117.876721,33.910784],[-117.887959,33.907107],[-117.911352,33.906684],[-117.915627,33.917362],[-117.924336,33.924395],[-117.933042,33.924608],[-117.93238,33.913703],[-117.950039,33.906468],[-117.976575,33.906406]]]},"properties":{"name":"Fullerton","type":"city","site_count":8}},{"type":"Feature","geometry":{"type":"Polygon","coordinates":[[[-118.041727,33.781167],[-118.042457,33.774036],[-117.994277,33.773849],[-117.989819,33.766537],[-117.981129,33.76661],[-117.981071,33.759335],[-117.963667,33.759472],[-117.959252,33.752197],[-117.946225,33.7523],[-117.945982,33.732483],[-117.941656,33.733508],[-117.94189,33.752338],[-117.937633,33.759635],[-117.911556,33.759823],[-117.894353,33.774479],[-117.8975,33.788918],[-117.904126,33.792502],[-117.914886,33.788947],[-117.91735,33.796081],[-117.928279,33.798742],[-117.934724,33.792333],[-117.941242,33.792296],[-117.941416,33.803081],[-117.963222,33.803098],[-117.971919,33.805689],[-117.973486,33.805667],[-117.975638,33.803066],[-117.976447,33.803058],[-117.977283,33.803051],[-117.988819,33.800745],[-117.988556,33.795667],[-117.986612,33.788409],[-117.988302,33.773819],[-117.998724,33.774693],[-117.999285,33.791971],[-118.001651,33.799233],[-118.011048,33.799187],[-118.011085,33.791998],[-118.03711,33.792097],[-118.041727,33.781167]]]},"properties":{"name":"Garden Grove","type":"city","site_count":8}},{"type":"Feature","geometry":{"type":"Polygon","coordinates":[[[-117.904126,33.792502],[-117.8975,33.788918],[-117.894353,33.774479],[-117.888117,33.773627],[-117.881967,33.784012],[-117.86732,33.775009],[-117.84881,33.774853],[-117.840098,33.776948],[-117.831401,33.772952],[-117.83006,33.773067],[-117.827077,33.773236],[-117.818352,33.773476],[-117.81713,33.773485],[-117.814031,33.773498],[-117.80534,33.773516],[-117.805456,33.777453],[-117.80426,33.777967],[-117.803103,33.78483],[-117.784839,33.780178],[-117.777572,33.787813],[-117.762155,33.776768],[-117.764236,33.773496],[-117.758542,33.773606],[-117.753956,33.779033],[-117.735676,33.769191],[-117.733452,33.77588],[-117.738959,33.782007],[-117.734948,33.787965],[-117.746848,33.790306],[-117.761184,33.7963],[-117.766088,33.801677],[-117.766149,33.823954],[-117.747166,33.825781],[-117.760576,33.827478],[-117.765207,33.834603],[-117.776412,33.830619],[-117.801773,33.838772],[-117.814328,33.838291],[-117.821582,33.834519],[-117.834474,33.839099],[-117.836401,33.84713],[-117.849924,33.845428],[-117.863438,33.835463],[-117.87191,33.812862],[-117.881262,33.79305],[-117.904126,33.792502]],[[-117.815703,33.80226],[-117.820253,33.805964],[-117.826261,33.823666],[-117.81288,33.824959],[-117.805055,33.830168],[-117.793782,33.826439],[-117.798847,33.813123],[-117.802495,33.807254],[-117.815703,33.80226]],[[-117.790776,33.804066],[-117.78351,33.81358],[-117.778753,33.803745],[-117.785431,33.799119],[-117.790776,33.804066]]]},"properties":{"name":"Orange","type":"city","site_count":20}},{"type":"Feature","geometry":{"type":"Polygon","coordinates":[[[-117.883132,33.859742],[-117.884977,33.853613],[-117.868801,33.857738],[-117.865298,33.868656],[-117.837107,33.868172],[-117.828315,33.861018],[-117.818433,33.862044],[-117.817293,33.870188],[-117.831472,33.874197],[-117.83436,33.879913],[-117.837963,33.89013],[-117.844434,33.88824],[-117.845832,33.903962],[-117.842413,33.910146],[-117.846,33.905738],[-117.863877,33.907404],[-117.87245,33.90367],[-117.87305,33.89187],[-117.86544,33.88931],[-117.86738,33.88275],[-117.876958,33.880973],[-117.883132,33.859742]]]},"properties":{"name":"Placentia","type":"city","site_count":1}},{"type":"Feature","geometry":{"type":"Polygon","coordinates":[[[-117.686633,33.487293],[-117.685367,33.480771],[-117.678126,33.478271],[-117.679342,33.469056],[-117.666447,33.466926],[-117.649566,33.467073],[-117.642641,33.471767],[-117.638045,33.481081],[-117.625525,33.478569],[-117.612493,33.483496],[-117.615921,33.494991],[-117.62274,33.5122],[-117.619807,33.51919],[-117.628838,33.517682],[-117.637253,33.520445],[-117.647594,33.526791],[-117.658992,33.533833],[-117.674132,33.543135],[-117.682454,33.538292],[-117.683384,33.524656],[-117.679159,33.517954],[-117.677542,33.506139],[-117.683879,33.500545],[-117.686633,33.487293]]]},"properties":{"name":"San Juan Capistrano","type":"city","site_count":0}},{"type":"Feature","geometry":{"type":"Polygon","coordinates":[[[-117.894353,33.774479],[-117.911556,33.759823],[-117.937633,33.759635],[-117.94189,33.752338],[-117.941656,33.733508],[-117.936588,33.730846],[-117.915345,33.728826],[-117.916583,33.722654],[-117.929533,33.701981],[-117.91946,33.70209],[-117.9194,33.69559],[-117.89217,33.6964],[-117.86822,33.69408],[-117.867728,33.691939],[-117.855434,33.704699],[-117.848728,33.700077],[-117.843253,33.705584],[-117.83764,33.71126],[-117.84465,33.71555],[-117.834055,33.726043],[-117.83353,33.73384],[-117.842514,33.73377],[-117.843481,33.741966],[-117.834398,33.744666],[-117.831401,33.750341],[-117.831401,33.772952],[-117.840098,33.776948],[-117.84881,33.774853],[-117.86732,33.775009],[-117.881967,33.784012],[-117.888117,33.773627],[-117.894353,33.774479]]]},"properties":{"name":"Santa Ana","type":"city","site_count":27}},{"type":"Feature","geometry":{"type":"Polygon","coordinates":[[[-118.042457,33.774036],[-118.041914,33.749684],[-118.03335,33.755295],[-118.024657,33.755342],[-118.00698,33.74444],[-118.00691,33.73735],[-117.993909,33.741059],[-117.993853,33.737457],[-117.989073,33.730283],[-117.971917,33.719843],[-117.971958,33.730284],[-117.963381,33.732639],[-117.945982,33.732483],[-117.946225,33.7523],[-117.959252,33.752197],[-117.963667,33.759472],[-117.981071,33.759335],[-117.981129,33.76661],[-117.989819,33.766537],[-117.994277,33.773849],[-118.042457,33.774036]],[[-117.98947,33.75019],[-117.976665,33.752094],[-117.976612,33.7448],[-117.989244,33.742256],[-117.98947,33.75019]]]},"properties":{"name":"Westminster","type":"city","site_count":8}},{"type":"Feature","geometry":{"type":"Polygon","coordinates":[[[-117.842413,33.910146],[-117.845832,33.903962],[-117.844434,33.88824],[-117.837963,33.89013],[-117.83436,33.879913],[-117.831472,33.874197],[-117.817293,33.870188],[-117.802943,33.874061],[-117.79127,33.865557],[-117.781068,33.863475],[-117.77098,33.87192],[-117.75,33.87733],[-117.744563,33.870242],[-117.725612,33.867302],[-117.710857,33.86701],[-117.697252,33.872904],[-117.683921,33.870973],[-117.687884,33.882897],[-117.732545,33.910334],[-117.732589,33.903061],[-117.746511,33.903048],[-117.74599,33.893835],[-117.758613,33.895423],[-117.758895,33.903443],[-117.753345,33.910933],[-117.762168,33.913298],[-117.769581,33.908408],[-117.80068,33.906809],[-117.815001,33.909957],[-117.826753,33.918252],[-117.835076,33.918439],[-117.842413,33.910146]]]},"properties":{"name":"Yorba Linda","type":"city","site_count":0}},{"type":"Feature","geometry":{"type":"Polygon","coordinates":[[[-117.942751,33.637427],[-117.940409,33.623706],[-117.951203,33.630047],[-117.958154,33.627298],[-117.988741,33.585567],[-117.934046,33.549254],[-117.905627,33.535371],[-117.836616,33.569716],[-117.829134,33.564041],[-117.816043,33.576054],[-117.812597,33.586757],[-117.805169,33.590131],[-117.802403,33.604668],[-117.799159,33.607081],[-117.81408,33.61104],[-117.82211,33.62071],[-117.83458,33.62857],[-117.84882,33.63324],[-117.85876,33.64083],[-117.862803,33.657568],[-117.854284,33.666129],[-117.864029,33.671739],[-117.876767,33.660551],[-117.879409,33.663573],[-117.88324,33.665397],[-117.887626,33.660984],[-117.888398,33.654447],[-117.889899,33.652937],[-117.890467,33.652359],[-117.898615,33.648576],[-117.899232,33.637953],[-117.911464,33.625644],[-117.917574,33.625171],[-117.927509,33.632079],[-117.939368,33.632422],[-117.942751,33.637427]]]},"properties":{"name":"Newport Beach","type":"city","site_count":1}},{"type":"Feature","geometry":{"type":"Polygon","coordinates":[[[-117.601563,33.589673],[-117.607252,33.577233],[-117.606111,33.569006],[-117.592741,33.558798],[-117.582094,33.557464],[-117.574501,33.562229],[-117.573036,33.577199],[-117.574945,33.587676],[-117.571782,33.593185],[-117.576009,33.599696],[-117.573563,33.609174],[-117.569027,33.618351],[-117.574005,33.638295],[-117.584051,33.639312],[-117.596698,33.619656],[-117.595049,33.598924],[-117.601563,33.589673]]]},"properties":{"name":"Coto de Caza","type":"CDP","site_count":0}},{"type":"Feature","geometry":{"type":"Polygon","coordinates":[[[-117.65449,33.562858],[-117.659017,33.55605],[-117.658992,33.533833],[-117.647594,33.526791],[-117.638257,33.528533],[-117.630115,33.530392],[-117.628924,33.530953],[-117.624136,33.534704],[-117.629067,33.544943],[-117.625602,33.558651],[-117.626333,33.565974],[-117.633159,33.575009],[-117.636149,33.575443],[-117.65449,33.562858]]]},"properties":{"name":"Ladera Ranch","type":"CDP","site_count":0}},{"type":"Feature","geometry":{"type":"Polygon","coordinates":[[[-117.98947,33.75019],[-117.989244,33.742256],[-117.976612,33.7448],[-117.976665,33.752094],[-117.98947,33.75019]]]},"properties":{"name":"Midway City","type":"CDP","site_count":0}},{"type":"Feature","geometry":{"type":"Polygon","coordinates":[[[-117.639435,33.587098],[-117.63055,33.58377],[-117.633159,33.575009],[-117.626333,33.565974],[-117.62395,33.568724],[-117.612972,33.567351],[-117.609573,33.581517],[-117.61102,33.58676],[-117.618814,33.587285],[-117.615604,33.60168],[-117.630194,33.595163],[-117.637151,33.596667],[-117.639435,33.587098]]]},"properties":{"name":"Las Flores","type":"CDP","site_count":0}},{"type":"Feature","geometry":{"type":"Polygon","coordinates":[[[-117.607648,33.699643],[-117.607577,33.709229],[-117.617413,33.715165],[-117.644615,33.717417],[-117.654887,33.706675],[-117.642017,33.70378],[-117.624286,33.704828],[-117.607648,33.699643]]]},"properties":{"name":"Modjeska","type":"CDP","site_count":0}},{"type":"Feature","geometry":{"type":"Polygon","coordinates":[[[-117.638257,33.528533],[-117.637253,33.520445],[-117.628838,33.517682],[-117.619807,33.51919],[-117.62274,33.5122],[-117.615921,33.494991],[-117.601822,33.502759],[-117.593273,33.487034],[-117.594318,33.484288],[-117.582921,33.49077],[-117.573425,33.483423],[-117.571443,33.455976],[-117.551833,33.45312],[-117.538429,33.455643],[-117.509581,33.471633],[-117.509725,33.509062],[-117.503756,33.508945],[-117.503181,33.520405],[-117.509909,33.520546],[-117.51021,33.533999],[-117.492697,33.557715],[-117.50021,33.56187],[-117.52756,33.55546],[-117.550131,33.533047],[-117.559139,33.534951],[-117.572206,33.545549],[-117.574501,33.562229],[-117.582094,33.557464],[-117.592741,33.558798],[-117.606111,33.569006],[-117.607252,33.577233],[-117.601563,33.589673],[-117.61102,33.58676],[-117.609573,33.581517],[-117.612972,33.567351],[-117.62395,33.568724],[-117.623152,33.557522],[-117.618931,33.549946],[-117.614291,33.52936],[-117.624136,33.534704],[-117.628924,33.530953],[-117.630115,33.530392],[-117.638257,33.528533]]]},"properties":{"name":"Rancho Mission Viejo","type":"CDP","site_count":0}},{"type":"Feature","geometry":{"type":"Polygon","coordinates":[[[-118.089243,33.785021],[-118.089117,33.777917],[-118.079396,33.774872],[-118.07201,33.78757],[-118.07196,33.80303],[-118.08095,33.80299],[-118.086143,33.796404],[-118.089243,33.785021]]]},"properties":{"name":"Rossmoor","type":"CDP","site_count":0}},{"type":"Feature","geometry":{"type":"Polygon","coordinates":[[[-117.827077,33.773236],[-117.83006,33.773067],[-117.829827,33.767149],[-117.820409,33.76349],[-117.822431,33.752254],[-117.80954,33.75075],[-117.802003,33.738384],[-117.795937,33.738866],[-117.777995,33.754049],[-117.777596,33.754452],[-117.774478,33.763199],[-117.764236,33.773496],[-117.762155,33.776768],[-117.777572,33.787813],[-117.784839,33.780178],[-117.79704,33.77935],[-117.80534,33.773516],[-117.814031,33.773498],[-117.81713,33.773485],[-117.818352,33.773476],[-117.827077,33.773236]]]},"properties":{"name":"North Tustin","type":"CDP","site_count":0}},{"type":"Feature","geometry":{"type":"Polygon","coordinates":[[[-117.67701,33.75665],[-117.67191,33.74943],[-117.65442,33.74204],[-117.639,33.74216],[-117.629769,33.734316],[-117.62374,33.7377],[-117.590549,33.737007],[-117.590494,33.744323],[-117.572946,33.744255],[-117.573001,33.750196],[-117.625483,33.750134],[-117.625131,33.762613],[-117.642966,33.763446],[-117.657016,33.756636],[-117.67701,33.75665]]]},"properties":{"name":"Silverado","type":"CDP","site_count":0}},{"type":"Feature","geometry":{"type":"Polygon","coordinates":[[[-117.642017,33.70378],[-117.628244,33.692852],[-117.6206,33.68314],[-117.623199,33.674801],[-117.602084,33.671819],[-117.60028,33.65338],[-117.59035,33.65967],[-117.582747,33.658301],[-117.564899,33.657432],[-117.564938,33.66462],[-117.556225,33.664646],[-117.559765,33.671678],[-117.560179,33.685905],[-117.607885,33.6861],[-117.607648,33.699643],[-117.624286,33.704828],[-117.642017,33.70378]]]},"properties":{"name":"Trabuco Canyon","type":"CDP","site_count":4}},{"type":"Feature","geometry":{"type":"Polygon","coordinates":[[[-117.651902,33.732963],[-117.648513,33.724036],[-117.642352,33.729756],[-117.651902,33.732963]]]},"properties":{"name":"Williams Canyon","type":"CDP","site_count":0}}]}