{"type": "FeatureCollection", "features": [{"type": "Feature", "geometry": {"type": "Point", "coordinates": [-117.852212, 33.732989]}, "properties": {"site_id": 1, "name": "AMHS LPS", "city": "SANTA ANA", "zip": "92705-4434", "plan_type": "MHP", "telehealth": "B", "cluster": null, "is_noise": 1, "provider_count": 6}}, {"type": "Feature", "geometry": {"type": "Point", "coordinates": [-117.92586, 33.917453]}, "properties": {"site_id": 2, "name": "AMHS Intensive Care Management Fullerton", "city": "FULLERTON", "zip": "92835-1145", "plan_type": "MHP", "telehealth": "B", "cluster": null, "is_noise": 1, "provider_count": 9}}, {"type": "Feature", "geometry": {"type": "Point", "coordinates": [-117.997144, 33.824789]}, "properties": {"site_id": 3, "name": "AMHS MHA West Region Outpatient & Recovery Services", "city": "ANAHEIM", "zip": "92804-3152", "plan_type": "MHP", "telehealth": "B", "cluster": 3, "is_noise": 0, "provider_count": 14}}, {"type": "Feature", "geometry": {"type": "Point", "coordinates": [-117.700114, 33.594594]}, "properties": {"site_id": 4, "name": "AMHS MHA Laguna Hills Outpatient Services", "city": "LAGUNA HILLS", "zip": "92653-1631", "plan_type": "MHP", "telehealth": "B", "cluster": 1, "is_noise": 0, "provider_count": 9}}, {"type": "Feature", "geometry": {"type": "Point", "coordinates": [-117.918021, 33.83528]}, "properties": {"site_id": 5, "name": "AMHS Centralized Intake North", "city": "ANAHEIM", "zip": "92805-2993", "plan_type": "MHP", "telehealth": "B", "cluster": 10, "is_noise": 0, "provider_count": 8}}, {"type": "Feature", "geometry": {"type": "Point", "coordinates": [-117.722332, 33.627719]}, "properties": {"site_id": 8, "name": "CYS South Region", "city": "LAGUNA HILLS", "zip": "92653-1575", "plan_type": "MHP", "telehealth": "B", "cluster": 1, "is_noise": 0, "provider_count": 7}}, {"type": "Feature", "geometry": {"type": "Point", "coordinates": [-117.989431, 33.757186]}, "properties": {"site_id": 9, "name": "CYS West Region", "city": "WESTMINSTER", "zip": "92683-4453", "plan_type": "MHP", "telehealth": "B", "cluster": 6, "is_noise": 0, "provider_count": 17}}, {"type": "Feature", "geometry": {"type": "Point", "coordinates": [-117.845344, 33.721524]}, "properties": {"site_id": 10, "name": "CYS YRC Central (Youth Reporting Center)", "city": "SANTA ANA", "zip": "92705-4933", "plan_type": "MHP", "telehealth": "B", "cluster": null, "is_noise": 1, "provider_count": 2}}, {"type": "Feature", "geometry": {"type": "Point", "coordinates": [-117.950943, 33.837202]}, "properties": {"site_id": 11, "name": "CYS YRC North (Youth Reporting Center)", "city": "ANAHEIM", "zip": "92801-5373", "plan_type": "MHP", "telehealth": "B", "cluster": 9, "is_noise": 0, "provider_count": 2}}, {"type": "Feature", "geometry": {"type": "Point", "coordinates": [-117.88181, 33.921067]}, "properties": {"site_id": 12, "name": "CYS North Region", "city": "BREA", "zip": "92821-5837", "plan_type": "MHP", "telehealth": "B", "cluster": null, "is_noise": 1, "provider_count": 17}}, {"type": "Feature", "geometry": {"type": "Point", "coordinates": [-117.88971, 33.67488]}, "properties": {"site_id": 13, "name": "CYS Costa Mesa Region", "city": "COSTA MESA", "zip": "92626-5996", "plan_type": "MHP", "telehealth": "B", "cluster": 4, "is_noise": 0, "provider_count": 8}}, {"type": "Feature", "geometry": {"type": "Point", "coordinates": [-117.88971, 33.67488]}, "properties": {"site_id": 14, "name": "AMHS Centralized Intake South", "city": "COSTA MESA", "zip": "92626-5996", "plan_type": "MHP", "telehealth": "B", "cluster": 4, "is_noise": 0, "provider_count": 12}}, {"type": "Feature", "geometry": {"type": "Point", "coordinates": [-117.867301, 33.749726]}, "properties": {"site_id": 15, "name": "AMHS FORENSICS CENTRAL", "city": "SANTA ANA", "zip": "92701-4134", "plan_type": "MHP", "telehealth": "B", "cluster": 12, "is_noise": 0, "provider_count": 3}}, {"type": "Feature", "geometry": {"type": "Point", "coordinates": [-117.989431, 33.757186]}, "properties": {"site_id": 16, "name": "AMHS PAU Westminster", "city": "WESTMINSTER", "zip": "92683-4453", "plan_type": "MHP", "telehealth": "B", "cluster": 6, "is_noise": 0, "provider_count": 6}}, {"type": "Feature", "geometry": {"type": "Point", "coordinates": [-117.989431, 33.757186]}, "properties": {"site_id": 17, "name": "AMHS ICM PAU Westminster", "city": "WESTMINSTER", "zip": "92683-4453", "plan_type": "MHP", "telehealth": "B", "cluster": 6, "is_noise": 0, "provider_count": 4}}, {"type": "Feature", "geometry": {"type": "Point", "coordinates": [-117.679499, 33.625976]}, "properties": {"site_id": 18, "name": "AMHS PACT TAY South", "city": "MISSION VIEJO", "zip": "92691-2706", "plan_type": "MHP", "telehealth": "B", "cluster": 1, "is_noise": 0, "provider_count": 6}}, {"type": "Feature", "geometry": {"type": "Point", "coordinates": [-117.989431, 33.757186]}, "properties": {"site_id": 19, "name": "AMHS PACT TAY Westminster", "city": "WESTMINSTER", "zip": "92683-4453", "plan_type": "MHP", "telehealth": "B", "cluster": 6, "is_noise": 0, "provider_count": 6}}, {"type": "Feature", "geometry": {"type": "Point", "coordinates": [-117.972894, 33.849386]}, "properties": {"site_id": 20, "name": "AMHS Telecare TAO FSP", "city": "ANAHEIM", "zip": "92801-2637", "plan_type": "MHP", "telehealth": "B", "cluster": null, "is_noise": 1, "provider_count": 9}}, {"type": "Feature", "geometry": {"type": "Point", "coordinates": [-117.688924, 33.629216]}, "properties": {"site_id": 21, "name": "CYS Seneca OC South", "city": "LAKE FOREST", "zip": "92630-4961", "plan_type": "MHP", "telehealth": "B", "cluster": 1, "is_noise": 0, "provider_count": 15}}, {"type": "Feature", "geometry": {"type": "Point", "coordinates": [-117.773799, 33.852139]}, "properties": {"site_id": 22, "name": "CYS Seneca OC North", "city": "ANAHEIM", "zip": "92807-4029", "plan_type": "MHP", "telehealth": "B", "cluster": null, "is_noise": 1, "provider_count": 11}}, {"type": "Feature", "geometry": {"type": "Point", "coordinates": [-117.841002, 33.750525]}, "properties": {"site_id": 23, "name": "CYS Seneca OC OP", "city": "SANTA ANA", "zip": "92701-5028", "plan_type": "MHP", "telehealth": "B", "cluster": 13, "is_noise": 0, "provider_count": 14}}, {"type": "Feature", "geometry": {"type": "Point", "coordinates": [-117.883184, 33.751302]}, "properties": {"site_id": 24, "name": "CYS New Alternatives", "city": "SANTA ANA", "zip": "92703-2252", "plan_type": "MHP", "telehealth": "B", "cluster": 12, "is_noise": 0, "provider_count": 2}}, {"type": "Feature", "geometry": {"type": "Point", "coordinates": [-117.879278, 33.86388]}, "properties": {"site_id": 25, "name": "CYS South Coast Children's Society Wraparound", "city": "PLACENTIA", "zip": "92870-6345", "plan_type": "MHP", "telehealth": "B", "cluster": null, "is_noise": 1, "provider_count": 9}}, {"type": "Feature", "geometry": {"type": "Point", "coordinates": [-117.864725, 33.780241]}, "properties": {"site_id": 26, "name": "CYS CHOC Project HEALTH FSP", "city": "ORANGE", "zip": "92868-4231", "plan_type": "MHP", "telehealth": "B", "cluster": 11, "is_noise": 0, "provider_count": 19}}, {"type": "Feature", "geometry": {"type": "Point", "coordinates": [-117.89641, 33.781472]}, "properties": {"site_id": 27, "name": "AMHS ICM Older Adult Services", "city": "ORANGE", "zip": "92868-3504", "plan_type": "MHP", "telehealth": "B", "cluster": 14, "is_noise": 0, "provider_count": 8}}, {"type": "Feature", "geometry": {"type": "Point", "coordinates": [-117.723896, 33.568259]}, "properties": {"site_id": 28, "name": "AMHS South Clinic", "city": "ALISO VIEJO", "zip": "92656-3358", "plan_type": "MHP", "telehealth": "B", "cluster": 1, "is_noise": 0, "provider_count": 8}}, {"type": "Feature", "geometry": {"type": "Point", "coordinates": [-117.913288, 33.834205]}, "properties": {"site_id": 29, "name": "CYS Clarvida Project RENEW FSP", "city": "ANAHEIM", "zip": "92805-6258", "plan_type": "MHP", "telehealth": "B", "cluster": 10, "is_noise": 0, "provider_count": 7}}, {"type": "Feature", "geometry": {"type": "Point", "coordinates": [-117.833288, 33.757082]}, "properties": {"site_id": 33, "name": "CYS Clarvida STAY Process FSP", "city": "SANTA ANA", "zip": "92705-8688", "plan_type": "MHP", "telehealth": "B", "cluster": 13, "is_noise": 0, "provider_count": 11}}, {"type": "Feature", "geometry": {"type": "Point", "coordinates": [-117.874185, 33.800121]}, "properties": {"site_id": 34, "name": "CYS CCPU (Continuing Care Placement Unit)", "city": "ORANGE", "zip": "92868-1008", "plan_type": "MHP", "telehealth": "B", "cluster": null, "is_noise": 1, "provider_count": 12}}, {"type": "Feature", "geometry": {"type": "Point", "coordinates": [-117.872194, 33.806151]}, "properties": {"site_id": 36, "name": "AMHS Clarvida OASIS FSP", "city": "ORANGE", "zip": "92867-3432", "plan_type": "MHP", "telehealth": "B", "cluster": null, "is_noise": 1, "provider_count": 19}}, {"type": "Feature", "geometry": {"type": "Point", "coordinates": [-117.89641, 33.781472]}, "properties": {"site_id": 40, "name": "AMHS CAT Orange", "city": "ORANGE", "zip": "92868-3506", "plan_type": "MHP", "telehealth": "B", "cluster": 14, "is_noise": 0, "provider_count": 54}}, {"type": "Feature", "geometry": {"type": "Point", "coordinates": [-117.89641, 33.781472]}, "properties": {"site_id": 41, "name": "AMHS Collaborative Court Central", "city": "ORANGE", "zip": "92868", "plan_type": "MHP", "telehealth": "B", "cluster": 14, "is_noise": 0, "provider_count": 20}}, {"type": "Feature", "geometry": {"type": "Point", "coordinates": [-117.959134, 33.839127]}, "properties": {"site_id": 42, "name": "AMHS Clarvida Anaheim Recovery Center", "city": "ANAHEIM", "zip": "92801-5229", "plan_type": "MHP", "telehealth": "B", "cluster": 9, "is_noise": 0, "provider_count": 16}}, {"type": "Feature", "geometry": {"type": "Point", "coordinates": [-117.837934, 33.74803]}, "properties": {"site_id": 43, "name": "AMHS Clarvida Camino Nuevo", "city": "SANTA ANA", "zip": "92705-3916", "plan_type": "MHP", "telehealth": "B", "cluster": 13, "is_noise": 0, "provider_count": 12}}, {"type": "Feature", "geometry": {"type": "Point", "coordinates": [-117.927327, 33.698738]}, "properties": {"site_id": 44, "name": "AMHS Mental Health Association Costa Mesa Recovery Center", "city": "COSTA MESA", "zip": "92626-1417", "plan_type": "MHP", "telehealth": "B", "cluster": 4, "is_noise": 0, "provider_count": 11}}, {"type": "Feature", "geometry": {"type": "Point", "coordinates": [-117.867301, 33.749726]}, "properties": {"site_id": 45, "name": "AMHS Santa Ana Clinic", "city": "SANTA ANA", "zip": "92701-7552", "plan_type": "MHP", "telehealth": "B", "cluster": 12, "is_noise": 0, "provider_count": 23}}, {"type": "Feature", "geometry": {"type": "Point", "coordinates": [-117.958781, 33.786706]}, "properties": {"site_id": 46, "name": "AMHS TAO Central FSP", "city": "GARDEN GROVE", "zip": "92840-2865", "plan_type": "MHP", "telehealth": "N", "cluster": 7, "is_noise": 0, "provider_count": 13}}, {"type": "Feature", "geometry": {"type": "Point", "coordinates": [-117.874498, 33.751874]}, "properties": {"site_id": 47, "name": "AMHS Telecare AOT FSP", "city": "SANTA ANA", "zip": "92701-4052", "plan_type": "MHP", "telehealth": "B", "cluster": 12, "is_noise": 0, "provider_count": 12}}, {"type": "Feature", "geometry": {"type": "Point", "coordinates": [-117.876838, 33.677786]}, "properties": {"site_id": 48, "name": "AMHS Telecare TAO South FSP", "city": "COSTA MESA", "zip": "92626-4566", "plan_type": "MHP", "telehealth": "B", "cluster": 4, "is_noise": 0, "provider_count": 6}}, {"type": "Feature", "geometry": {"type": "Point", "coordinates": [-117.866717, 33.762232]}, "properties": {"site_id": 49, "name": "AMHS Telecare Comprehensive FACT FSP", "city": "SANTA ANA", "zip": "92706-2816", "plan_type": "MHP", "telehealth": "B", "cluster": null, "is_noise": 1, "provider_count": 7}}, {"type": "Feature", "geometry": {"type": "Point", "coordinates": [-117.93782, 33.774662]}, "properties": {"site_id": 50, "name": "CYS Clarvida Garden Grove", "city": "GARDEN GROVE", "zip": "92840-5200", "plan_type": "MHP", "telehealth": "B", "cluster": null, "is_noise": 1, "provider_count": 14}}, {"type": "Feature", "geometry": {"type": "Point", "coordinates": [-117.888141, 33.783601]}, "properties": {"site_id": 51, "name": "CYS CAST (Child Abuse Services Team)", "city": "ORANGE", "zip": "92868-3303", "plan_type": "MHP", "telehealth": "N", "cluster": 14, "is_noise": 0, "provider_count": 2}}, {"type": "Feature", "geometry": {"type": "Point", "coordinates": [-117.890147, 33.784039]}, "properties": {"site_id": 52, "name": "CYS CEGU OCFC (Orangewood Children & Family Center)", "city": "ORANGE", "zip": "92868-3205", "plan_type": "MHP", "telehealth": "B", "cluster": 14, "is_noise": 0, "provider_count": 13}}, {"type": "Feature", "geometry": {"type": "Point", "coordinates": [-117.998411, 33.869232]}, "properties": {"site_id": 53, "name": "CYS Child Guidance Center Buena Park", "city": "BUENA PARK", "zip": "90621-4031", "plan_type": "MHP", "telehealth": "B", "cluster": null, "is_noise": 1, "provider_count": 10}}, {"type": "Feature", "geometry": {"type": "Point", "coordinates": [-117.873757, 33.748074]}, "properties": {"site_id": 54, "name": "CYS Child Guidance Center East", "city": "SANTA ANA", "zip": "92701-4552", "plan_type": "MHP", "telehealth": "B", "cluster": 12, "is_noise": 0, "provider_count": 32}}, {"type": "Feature", "geometry": {"type": "Point", "coordinates": [-117.881821, 33.876608]}, "properties": {"site_id": 55, "name": "CYS Child Guidance Center North", "city": "FULLERTON", "zip": "92831-3702", "plan_type": "MHP", "telehealth": "B", "cluster": null, "is_noise": 1, "provider_count": 22}}, {"type": "Feature", "geometry": {"type": "Point", "coordinates": [-117.656874, 33.455324]}, "properties": {"site_id": 56, "name": "CYS Child Guidance Center South", "city": "SAN CLEMENTE", "zip": "92672-3508", "plan_type": "MHP", "telehealth": "B", "cluster": null, "is_noise": 1, "provider_count": 9}}, {"type": "Feature", "geometry": {"type": "Point", "coordinates": [-117.896175, 33.783074]}, "properties": {"site_id": 58, "name": "CYS East Region", "city": "ORANGE", "zip": "92868-2941", "plan_type": "MHP", "telehealth": "B", "cluster": 14, "is_noise": 0, "provider_count": 20}}, {"type": "Feature", "geometry": {"type": "Point", "coordinates": [-117.963465, 33.772554]}, "properties": {"site_id": 59, "name": "CYS KCS FSP Project Focus", "city": "GARDEN GROVE", "zip": "92844-1633", "plan_type": "MHP", "telehealth": "B", "cluster": 7, "is_noise": 0, "provider_count": 2}}, {"type": "Feature", "geometry": {"type": "Point", "coordinates": [-117.955672, 33.775439]}, "properties": {"site_id": 62, "name": "CYS OC Asian and Pacific Islander Community Alliance", "city": "GARDEN GROVE", "zip": "92840-4835", "plan_type": "MHP", "telehealth": "B", "cluster": 7, "is_noise": 0, "provider_count": 9}}, {"type": "Feature", "geometry": {"type": "Point", "coordinates": [-117.848509, 33.704176]}, "properties": {"site_id": 63, "name": "CYS Children\u2019s In Home Crisis Stabilization", "city": "SANTA ANA", "zip": "92705-5716", "plan_type": "MHP", "telehealth": "B", "cluster": null, "is_noise": 1, "provider_count": 4}}, {"type": "Feature", "geometry": {"type": "Point", "coordinates": [-117.83631, 33.74772]}, "properties": {"site_id": 65, "name": "CYS Olive Crest Wraparound", "city": "SANTA ANA", "zip": "92705-3818", "plan_type": "MHP", "telehealth": "B", "cluster": 13, "is_noise": 0, "provider_count": 6}}, {"type": "Feature", "geometry": {"type": "Point", "coordinates": [-117.91882, 33.832405]}, "properties": {"site_id": 69, "name": "CYS Western Youth Services North", "city": "ANAHEIM", "zip": "92805-3756", "plan_type": "MHP", "telehealth": "B", "cluster": 10, "is_noise": 0, "provider_count": 32}}, {"type": "Feature", "geometry": {"type": "Point", "coordinates": [-117.91882, 33.832405]}, "properties": {"site_id": 70, "name": "CYS Western Youth Services North MHSA", "city": "ANAHEIM", "zip": "92805-3756", "plan_type": "MHP", "telehealth": "B", "cluster": 10, "is_noise": 0, "provider_count": 9}}, {"type": "Feature", "geometry": {"type": "Point", "coordinates": [-117.673874, 33.601163]}, "properties": {"site_id": 71, "name": "CYS Western Youth Services Mission Viejo", "city": "MISSION VIEJO", "zip": "92691-5337", "plan_type": "MHP", "telehealth": "B", "cluster": 1, "is_noise": 0, "provider_count": 18}}, {"type": "Feature", "geometry": {"type": "Point", "coordinates": [-117.673874, 33.601163]}, "properties": {"site_id": 72, "name": "CYS Western Youth Services Mission Viejo MHSA", "city": "MISSION VIEJO", "zip": "92691-5337", "plan_type": "MHP", "telehealth": "B", "cluster": 1, "is_noise": 0, "provider_count": 1}}, {"type": "Feature", "geometry": {"type": "Point", "coordinates": [-117.867301, 33.749726]}, "properties": {"site_id": 73, "name": "CYS Western Youth Services EAST MHSA", "city": "SANTA ANA", "zip": "92701-4134", "plan_type": "MHP", "telehealth": "B", "cluster": 12, "is_noise": 0, "provider_count": 10}}, {"type": "Feature", "geometry": {"type": "Point", "coordinates": [-117.867301, 33.749726]}, "properties": {"site_id": 74, "name": "CYS Western Youth Services East Region", "city": "SANTA ANA", "zip": "92701-4134", "plan_type": "MHP", "telehealth": "B", "cluster": 12, "is_noise": 0, "provider_count": 25}}, {"type": "Feature", "geometry": {"type": "Point", "coordinates": [-117.941339, 33.696394]}, "properties": {"site_id": 75, "name": "CYS Western Youth Services West", "city": "FOUNTAIN VALLEY", "zip": "92708-6912", "plan_type": "MHP", "telehealth": "B", "cluster": null, "is_noise": 1, "provider_count": 21}}, {"type": "Feature", "geometry": {"type": "Point", "coordinates": [-117.941339, 33.696394]}, "properties": {"site_id": 76, "name": "CYS Western Youth Services West MHSA", "city": "FOUNTAIN VALLEY", "zip": "92708-6900", "plan_type": "MHP", "telehealth": "B", "cluster": null, "is_noise": 1, "provider_count": 2}}, {"type": "Feature", "geometry": {"type": "Point", "coordinates": [-117.870054, 33.764263]}, "properties": {"site_id": 77, "name": "AMHS STEPs Telecare FSP", "city": "SANTA ANA", "zip": "92706-2624", "plan_type": "MHP", "telehealth": "B", "cluster": null, "is_noise": 1, "provider_count": 7}}, {"type": "Feature", "geometry": {"type": "Point", "coordinates": [-117.959668, 33.823621]}, "properties": {"site_id": 78, "name": "AMHS Clarvida OK AB109 FSP", "city": "ANAHEIM", "zip": "92804-3510", "plan_type": "MHP", "telehealth": "B", "cluster": 9, "is_noise": 0, "provider_count": 6}}, {"type": "Feature", "geometry": {"type": "Point", "coordinates": [-117.959668, 33.823621]}, "properties": {"site_id": 79, "name": "AMHS Clarvida OK FSP", "city": "ANAHEIM", "zip": "92804-3510", "plan_type": "MHP", "telehealth": "B", "cluster": 9, "is_noise": 0, "provider_count": 10}}, {"type": "Feature", "geometry": {"type": "Point", "coordinates": [-117.918997, 33.832958]}, "properties": {"site_id": 80, "name": "AMHS Anaheim Clinic", "city": "ANAHEIM", "zip": "92805-3743", "plan_type": "MHP", "telehealth": "B", "cluster": 10, "is_noise": 0, "provider_count": 32}}, {"type": "Feature", "geometry": {"type": "Point", "coordinates": [-117.89641, 33.781472]}, "properties": {"site_id": 81, "name": "AMHS OAS MH Recovery", "city": "ORANGE", "zip": "92868-3504", "plan_type": "MHP", "telehealth": "B", "cluster": 14, "is_noise": 0, "provider_count": 13}}, {"type": "Feature", "geometry": {"type": "Point", "coordinates": [-117.918997, 33.832958]}, "properties": {"site_id": 82, "name": "AMHS Intensive Care Management Anaheim", "city": "ANAHEIM", "zip": "92806-3743", "plan_type": "MHP", "telehealth": "B", "cluster": 10, "is_noise": 0, "provider_count": 12}}, {"type": "Feature", "geometry": {"type": "Point", "coordinates": [-117.867301, 33.749726]}, "properties": {"site_id": 83, "name": "AMHS Intensive Care Management Santa Ana", "city": "SANTA ANA", "zip": "92701-7552", "plan_type": "MHP", "telehealth": "B", "cluster": 12, "is_noise": 0, "provider_count": 9}}, {"type": "Feature", "geometry": {"type": "Point", "coordinates": [-117.918997, 33.832958]}, "properties": {"site_id": 84, "name": "AMHS PACT TAY Anaheim", "city": "ANAHEIM", "zip": "92805-3743", "plan_type": "MHP", "telehealth": "B", "cluster": 10, "is_noise": 0, "provider_count": 4}}, {"type": "Feature", "geometry": {"type": "Point", "coordinates": [-117.92586, 33.917453]}, "properties": {"site_id": 85, "name": "AMHS PACT TAY Fullerton", "city": "FULLERTON", "zip": "92835-1145", "plan_type": "MHP", "telehealth": "B", "cluster": null, "is_noise": 1, "provider_count": 6}}, {"type": "Feature", "geometry": {"type": "Point", "coordinates": [-117.679499, 33.625976]}, "properties": {"site_id": 86, "name": "AMHS Intensive Care Management Mission Viejo", "city": "MISSION VIEJO", "zip": "92691-2706", "plan_type": "MHP", "telehealth": "B", "cluster": 1, "is_noise": 0, "provider_count": 9}}, {"type": "Feature", "geometry": {"type": "Point", "coordinates": [-117.867301, 33.749726]}, "properties": {"site_id": 87, "name": "AMHS PACT TAY Santa Ana", "city": "SANTA ANA", "zip": "92701-4134", "plan_type": "MHP", "telehealth": "B", "cluster": 12, "is_noise": 0, "provider_count": 6}}, {"type": "Feature", "geometry": {"type": "Point", "coordinates": [-117.989431, 33.757186]}, "properties": {"site_id": 88, "name": "AMHS Intensive Care Management Westminster", "city": "WESTMINSTER", "zip": "92683-4453", "plan_type": "MHP", "telehealth": "B", "cluster": 6, "is_noise": 0, "provider_count": 9}}, {"type": "Feature", "geometry": {"type": "Point", "coordinates": [-117.989431, 33.757186]}, "properties": {"site_id": 90, "name": "AMHS Westminster Clinic", "city": "WESTMINSTER", "zip": "92683-4453", "plan_type": "MHP", "telehealth": "B", "cluster": 6, "is_noise": 0, "provider_count": 14}}, {"type": "Feature", "geometry": {"type": "Point", "coordinates": [-117.958781, 33.786706]}, "properties": {"site_id": 96, "name": "AMHS Telecare Home First Central", "city": "GARDEN GROVE", "zip": "92840-2865", "plan_type": "MHP", "telehealth": "B", "cluster": 7, "is_noise": 0, "provider_count": 14}}, {"type": "Feature", "geometry": {"type": "Point", "coordinates": [-117.89641, 33.781472]}, "properties": {"site_id": 97, "name": "PEI OC Center for Resiliency, Education and Wellness", "city": "ORANGE", "zip": "92868-3504", "plan_type": "MHP", "telehealth": "B", "cluster": 14, "is_noise": 0, "provider_count": 18}}, {"type": "Feature", "geometry": {"type": "Point", "coordinates": [-117.89641, 33.781472]}, "properties": {"site_id": 102, "name": "CYS CAT", "city": "ORANGE", "zip": "92868-3506", "plan_type": "MHP", "telehealth": "B", "cluster": 14, "is_noise": 0, "provider_count": 31}}, {"type": "Feature", "geometry": {"type": "Point", "coordinates": [-117.874085, 33.677703]}, "properties": {"site_id": 103, "name": "PACIFIC NEUROPSYCHIATRIC SPECIALISTS INC.", "city": "COSTA MESA", "zip": "92626-4624", "plan_type": "MHP", "telehealth": "B", "cluster": 4, "is_noise": 0, "provider_count": 36}}, {"type": "Feature", "geometry": {"type": "Point", "coordinates": [-117.864025, 33.782129]}, "properties": {"site_id": 104, "name": "OC PROGRESSIVE RECOVERY INC", "city": "ORANGE", "zip": "92868-3849", "plan_type": "MHP", "telehealth": "N", "cluster": 11, "is_noise": 0, "provider_count": 16}}, {"type": "Feature", "geometry": {"type": "Point", "coordinates": [-117.867953, 33.74954]}, "properties": {"site_id": 105, "name": "NEW FOUNDATION MEDICAL INC", "city": "SANTA ANA", "zip": "92701-4623", "plan_type": "MHP", "telehealth": "B", "cluster": 12, "is_noise": 0, "provider_count": 3}}, {"type": "Feature", "geometry": {"type": "Point", "coordinates": [-117.864117, 33.787951]}, "properties": {"site_id": 106, "name": "ADVANTAGE NEUROPSYCHIATRIC ASSOC", "city": "ORANGE", "zip": "92868-2847", "plan_type": "MHP", "telehealth": "B", "cluster": 11, "is_noise": 0, "provider_count": 15}}, {"type": "Feature", "geometry": {"type": "Point", "coordinates": [-117.862392, 33.695562]}, "properties": {"site_id": 108, "name": "Progeny Psychiatric Group - Irvine", "city": "IRVINE", "zip": "92614-6041", "plan_type": "MHP", "telehealth": "B", "cluster": 4, "is_noise": 0, "provider_count": 11}}, {"type": "Feature", "geometry": {"type": "Point", "coordinates": [-117.911956, 33.6521]}, "properties": {"site_id": 113, "name": "AMHS College Costa Mesa", "city": "COSTA MESA", "zip": "92627-1995", "plan_type": "MHP", "telehealth": "N", "cluster": 5, "is_noise": 0, "provider_count": 1}}, {"type": "Feature", "geometry": {"type": "Point", "coordinates": [-117.880977, 33.785011]}, "properties": {"site_id": 116, "name": "AMHS Exodus Crisis Residential Program Be Well Orange", "city": "ORANGE", "zip": "92868-3346", "plan_type": "MHP", "telehealth": "B", "cluster": 15, "is_noise": 0, "provider_count": 34}}, {"type": "Feature", "geometry": {"type": "Point", "coordinates": [-117.83465, 33.782082]}, "properties": {"site_id": 117, "name": "AMHS Coastal Star Crisis Residential", "city": "ORANGE", "zip": "92866-2550", "plan_type": "MHP", "telehealth": "B", "cluster": null, "is_noise": 1, "provider_count": 21}}, {"type": "Feature", "geometry": {"type": "Point", "coordinates": [-117.829884, 33.750563]}, "properties": {"site_id": 120, "name": "CYS WAYMAKERS CHILDREN'S SPECIALIZED SERVICES", "city": "TUSTIN", "zip": "92780-2554", "plan_type": "MHP", "telehealth": "B", "cluster": 13, "is_noise": 0, "provider_count": 10}}, {"type": "Feature", "geometry": {"type": "Point", "coordinates": [-117.919861, 33.73436]}, "properties": {"site_id": 124, "name": "CYS Western Youth Services Metro East", "city": "SANTA ANA", "zip": "92704-6951", "plan_type": "MHP", "telehealth": "B", "cluster": null, "is_noise": 1, "provider_count": 18}}, {"type": "Feature", "geometry": {"type": "Point", "coordinates": [-118.032557, 33.862284]}, "properties": {"site_id": 125, "name": "AMHS Telecare Home First North", "city": "LA PALMA", "zip": "90623-2562", "plan_type": "MHP", "telehealth": "B", "cluster": null, "is_noise": 1, "provider_count": 13}}, {"type": "Feature", "geometry": {"type": "Point", "coordinates": [-117.813991, 33.74774]}, "properties": {"site_id": 126, "name": "CYS Clarvida Tustin", "city": "TUSTIN", "zip": "92780-2156", "plan_type": "MHP", "telehealth": "B", "cluster": null, "is_noise": 1, "provider_count": 9}}, {"type": "Feature", "geometry": {"type": "Point", "coordinates": [-117.902262, 33.86016]}, "properties": {"site_id": 130, "name": "CYS Clarvida Fullerton", "city": "FULLERTON", "zip": "92831-5205", "plan_type": "MHP", "telehealth": "B", "cluster": 8, "is_noise": 0, "provider_count": 13}}, {"type": "Feature", "geometry": {"type": "Point", "coordinates": [-117.93782, 33.774662]}, "properties": {"site_id": 131, "name": "AMHS Project SHINE-OC FSP", "city": "GARDEN GROVE", "zip": "92840-9209", "plan_type": "MHP", "telehealth": "B", "cluster": null, "is_noise": 1, "provider_count": 16}}, {"type": "Feature", "geometry": {"type": "Point", "coordinates": [-117.953891, 33.820131]}, "properties": {"site_id": 132, "name": "AMHS Telecare Treehouse Crisis Residential North", "city": "ANAHEIM", "zip": "92804-4406", "plan_type": "MHP", "telehealth": "B", "cluster": null, "is_noise": 1, "provider_count": 6}}, {"type": "Feature", "geometry": {"type": "Point", "coordinates": [-117.68721, 33.610827]}, "properties": {"site_id": 133, "name": "AMHS Telecare Treehouse Crisis Residential South", "city": "MISSION VIEJO", "zip": "92691-3854", "plan_type": "MHP", "telehealth": "B", "cluster": 1, "is_noise": 0, "provider_count": 9}}, {"type": "Feature", "geometry": {"type": "Point", "coordinates": [-117.911956, 33.6521]}, "properties": {"site_id": 137, "name": "MAHTAB YOUSEFI", "city": "COSTA MESA", "zip": "92627-1995", "plan_type": "MHP", "telehealth": "N", "cluster": 5, "is_noise": 0, "provider_count": 1}}, {"type": "Feature", "geometry": {"type": "Point", "coordinates": [-117.895393, 33.690216]}, "properties": {"site_id": 138, "name": "CYS Clarvida Costa Mesa", "city": "COSTA MESA", "zip": "92626-7719", "plan_type": "MHP", "telehealth": "B", "cluster": 4, "is_noise": 0, "provider_count": 8}}, {"type": "Feature", "geometry": {"type": "Point", "coordinates": [-117.882593, 33.714654]}, "properties": {"site_id": 144, "name": "AMHS Crisis Stabilization Unit", "city": "SANTA ANA", "zip": "92707-3147", "plan_type": "MHP", "telehealth": "B", "cluster": null, "is_noise": 1, "provider_count": 46}}, {"type": "Feature", "geometry": {"type": "Point", "coordinates": [-117.911956, 33.6521]}, "properties": {"site_id": 145, "name": "AMHS College Hospital Crisis Stabilization Unit", "city": "COSTA MESA", "zip": "92627-1995", "plan_type": "MHP", "telehealth": "B", "cluster": 5, "is_noise": 0, "provider_count": 38}}, {"type": "Feature", "geometry": {"type": "Point", "coordinates": [-117.880977, 33.785011]}, "properties": {"site_id": 146, "name": "AMHS Exodus Crisis Stabilization Unit Be Well Orange", "city": "ORANGE", "zip": "92868-3335", "plan_type": "MHP", "telehealth": "B", "cluster": 15, "is_noise": 0, "provider_count": 79}}, {"type": "Feature", "geometry": {"type": "Point", "coordinates": [-118.006927, 33.815723]}, "properties": {"site_id": 151, "name": "ANAHEIM COMMUNITY HOSPITAL, LLC", "city": "ANAHEIM", "zip": "92804", "plan_type": "MHP", "telehealth": "N", "cluster": 3, "is_noise": 0, "provider_count": 2}}, {"type": "Feature", "geometry": {"type": "Point", "coordinates": [-117.584146, 33.667314]}, "properties": {"site_id": 158, "name": "ADAS SUD Vera's Sanctuary 2 SRT WM", "city": "TRABUCO CANYON", "zip": "92679-0975", "plan_type": "DMC", "telehealth": "B", "cluster": 2, "is_noise": 0, "provider_count": 12}}, {"type": "Feature", "geometry": {"type": "Point", "coordinates": [-117.915961, 33.84252]}, "properties": {"site_id": 159, "name": "ADAS SUD Hope House", "city": "ANAHEIM", "zip": "92805-2651", "plan_type": "DMC", "telehealth": "B", "cluster": 10, "is_noise": 0, "provider_count": 15}}, {"type": "Feature", "geometry": {"type": "Point", "coordinates": [-117.918997, 33.832958]}, "properties": {"site_id": 161, "name": "ADAS SUD Anaheim", "city": "ANAHEIM", "zip": "92805-3700", "plan_type": "DMC", "telehealth": "B", "cluster": 10, "is_noise": 0, "provider_count": 10}}, {"type": "Feature", "geometry": {"type": "Point", "coordinates": [-117.723896, 33.568259]}, "properties": {"site_id": 162, "name": "ADAS SUD  Aliso Viejo", "city": "ALISO VIEJO", "zip": "92656-3014", "plan_type": "DMC", "telehealth": "B", "cluster": 1, "is_noise": 0, "provider_count": 8}}, {"type": "Feature", "geometry": {"type": "Point", "coordinates": [-117.877278, 33.837522]}, "properties": {"site_id": 163, "name": "ADAS SUD Anaheim Comprehensive Treatment Center", "city": "ANAHEIM", "zip": "92806-1205", "plan_type": "DMC", "telehealth": "B", "cluster": null, "is_noise": 1, "provider_count": 17}}, {"type": "Feature", "geometry": {"type": "Point", "coordinates": [-117.719102, 34.084288]}, "properties": {"site_id": 164, "name": "ADAS SUD New Creation Residential", "city": "CLAREMONT", "zip": "91711-5444", "plan_type": "DMC", "telehealth": "B", "cluster": 0, "is_noise": 0, "provider_count": 45}}, {"type": "Feature", "geometry": {"type": "Point", "coordinates": [-117.653172, 34.096089]}, "properties": {"site_id": 165, "name": "ADAS SUD His House Residential", "city": "UPLAND", "zip": "91786-5979", "plan_type": "DMC", "telehealth": "B", "cluster": 0, "is_noise": 0, "provider_count": 26}}, {"type": "Feature", "geometry": {"type": "Point", "coordinates": [-117.883843, 33.749874]}, "properties": {"site_id": 166, "name": "ADAS SUD Gerry House", "city": "SANTA ANA", "zip": "92703", "plan_type": "DMC", "telehealth": "N", "cluster": 12, "is_noise": 0, "provider_count": 12}}, {"type": "Feature", "geometry": {"type": "Point", "coordinates": [-117.939464, 33.859943]}, "properties": {"site_id": 167, "name": "ADAS SUD Woodglen Residential", "city": "FULLERTON", "zip": "92832-2806", "plan_type": "DMC", "telehealth": "B", "cluster": 8, "is_noise": 0, "provider_count": 16}}, {"type": "Feature", "geometry": {"type": "Point", "coordinates": [-117.995434, 33.802152]}, "properties": {"site_id": 168, "name": "ADAS SUD Western Pacific Stanton FP NTP", "city": "STANTON", "zip": "90680-2604", "plan_type": "DMC", "telehealth": "B", "cluster": 3, "is_noise": 0, "provider_count": 15}}, {"type": "Feature", "geometry": {"type": "Point", "coordinates": [-117.667706, 33.563308]}, "properties": {"site_id": 169, "name": "ADAS SUD Western Pacific Mission Viejo FP NTP", "city": "MISSION VIEJO", "zip": "92691-6501", "plan_type": "DMC", "telehealth": "B", "cluster": 1, "is_noise": 0, "provider_count": 12}}, {"type": "Feature", "geometry": {"type": "Point", "coordinates": [-117.921487, 33.870442]}, "properties": {"site_id": 170, "name": "ADAS SUD Western Pacific Fullerton FP NTP", "city": "FULLERTON", "zip": "92832-1911", "plan_type": "DMC", "telehealth": "B", "cluster": 8, "is_noise": 0, "provider_count": 17}}, {"type": "Feature", "geometry": {"type": "Point", "coordinates": [-117.910731, 33.652187]}, "properties": {"site_id": 171, "name": "ADAS SUD Western Pacific Costa Mesa NP/FP NTP", "city": "COSTA MESA", "zip": "92627-1906", "plan_type": "DMC", "telehealth": "B", "cluster": 5, "is_noise": 0, "provider_count": 17}}, {"type": "Feature", "geometry": {"type": "Point", "coordinates": [-117.867301, 33.749726]}, "properties": {"site_id": 172, "name": "ADAS SUD Santa Ana", "city": "SANTA ANA", "zip": "92701-4134", "plan_type": "DMC", "telehealth": "B", "cluster": 12, "is_noise": 0, "provider_count": 22}}, {"type": "Feature", "geometry": {"type": "Point", "coordinates": [-117.853489, 33.753032]}, "properties": {"site_id": 174, "name": "ADAS SUD Phoenix House Outpatient", "city": "SANTA ANA", "zip": "92701-4206", "plan_type": "DMC", "telehealth": "B", "cluster": 13, "is_noise": 0, "provider_count": 13}}, {"type": "Feature", "geometry": {"type": "Point", "coordinates": [-117.58462, 33.667147]}, "properties": {"site_id": 175, "name": "ADAS SUD Vera's Sanctuary Residential", "city": "TRABUCO CANYON", "zip": "92679-0975", "plan_type": "DMC", "telehealth": "N", "cluster": 2, "is_noise": 0, "provider_count": 24}}, {"type": "Feature", "geometry": {"type": "Point", "coordinates": [-117.995434, 33.802152]}, "properties": {"site_id": 176, "name": "ADAS SUD Roque Center WM", "city": "STANTON", "zip": "90680-2724", "plan_type": "DMC", "telehealth": "B", "cluster": 3, "is_noise": 0, "provider_count": 13}}, {"type": "Feature", "geometry": {"type": "Point", "coordinates": [-117.989431, 33.757186]}, "properties": {"site_id": 177, "name": "ADAS SUD Westminster", "city": "WESTMINSTER", "zip": "92683-4453", "plan_type": "DMC", "telehealth": "B", "cluster": 6, "is_noise": 0, "provider_count": 7}}, {"type": "Feature", "geometry": {"type": "Point", "coordinates": [-117.889489, 33.844627]}, "properties": {"site_id": 178, "name": "ADAS SUD Welmor Anaheim", "city": "ANAHEIM", "zip": "92806-2917", "plan_type": "DMC", "telehealth": "B", "cluster": null, "is_noise": 1, "provider_count": 13}}, {"type": "Feature", "geometry": {"type": "Point", "coordinates": [-117.868493, 33.663409]}, "properties": {"site_id": 180, "name": "ADAS SUD Welmor Newport Beach", "city": "NEWPORT BEACH", "zip": "92660-2333", "plan_type": "DMC", "telehealth": "B", "cluster": 4, "is_noise": 0, "provider_count": 11}}, {"type": "Feature", "geometry": {"type": "Point", "coordinates": [-117.711868, 33.611195]}, "properties": {"site_id": 181, "name": "ADAS SUD Twin Town Laguna Hills", "city": "LAGUNA HILLS", "zip": "92653-3125", "plan_type": "DMC", "telehealth": "B", "cluster": 1, "is_noise": 0, "provider_count": 70}}, {"type": "Feature", "geometry": {"type": "Point", "coordinates": [-118.057923, 33.803222]}, "properties": {"site_id": 182, "name": "ADAS SUD Twin Town Los Alamitos", "city": "LOS ALAMITOS", "zip": "90720-3590", "plan_type": "DMC", "telehealth": "B", "cluster": null, "is_noise": 1, "provider_count": 71}}, {"type": "Feature", "geometry": {"type": "Point", "coordinates": [-117.859859, 33.780696]}, "properties": {"site_id": 183, "name": "ADAS SUD Twin Town Orange", "city": "ORANGE", "zip": "92868-4448", "plan_type": "DMC", "telehealth": "B", "cluster": 11, "is_noise": 0, "provider_count": 70}}, {"type": "Feature", "geometry": {"type": "Point", "coordinates": [-117.939116, 33.859747]}, "properties": {"site_id": 184, "name": "ADAS SUD Woodglen WM", "city": "FULLERTON", "zip": "92832-2806", "plan_type": "DMC", "telehealth": "B", "cluster": 8, "is_noise": 0, "provider_count": 11}}, {"type": "Feature", "geometry": {"type": "Point", "coordinates": [-117.853489, 33.753032]}, "properties": {"site_id": 185, "name": "ADAS SUD Phoenix House Residential", "city": "SANTA ANA", "zip": "92701-4206", "plan_type": "DMC", "telehealth": "B", "cluster": 13, "is_noise": 0, "provider_count": 50}}, {"type": "Feature", "geometry": {"type": "Point", "coordinates": [-117.603469, 33.636393]}, "properties": {"site_id": 187, "name": "ADAS SUD Vera's Sanctuary Outpatient", "city": "RANCHO SANTA MARGARITA", "zip": "92688-2122", "plan_type": "DMC", "telehealth": "B", "cluster": 2, "is_noise": 0, "provider_count": 9}}, {"type": "Feature", "geometry": {"type": "Point", "coordinates": [-117.840373, 33.748284]}, "properties": {"site_id": 188, "name": "ADAS SUD Phoenix House Adolescent Outpatient", "city": "SANTA ANA", "zip": "92705-3908", "plan_type": "DMC", "telehealth": "B", "cluster": 13, "is_noise": 0, "provider_count": 5}}, {"type": "Feature", "geometry": {"type": "Point", "coordinates": [-117.917431, 33.827452]}, "properties": {"site_id": 190, "name": "ADAS SUD Options", "city": "ANAHEIM", "zip": "92805-4521", "plan_type": "DMC", "telehealth": "B", "cluster": 10, "is_noise": 0, "provider_count": 8}}, {"type": "Feature", "geometry": {"type": "Point", "coordinates": [-117.584146, 33.667314]}, "properties": {"site_id": 192, "name": "ADAS SUD Vera's Sanctuary 2 SRT Residential", "city": "TRABUCO CANYON", "zip": "92679-0975", "plan_type": "DMC", "telehealth": "B", "cluster": 2, "is_noise": 0, "provider_count": 15}}, {"type": "Feature", "geometry": {"type": "Point", "coordinates": [-117.653172, 34.096089]}, "properties": {"site_id": 193, "name": "ADAS SUD His House Apt Residential", "city": "UPLAND", "zip": "91786-5910", "plan_type": "DMC", "telehealth": "B", "cluster": 0, "is_noise": 0, "provider_count": 12}}, {"type": "Feature", "geometry": {"type": "Point", "coordinates": [-117.65387, 34.096669]}, "properties": {"site_id": 194, "name": "ADAS SUD His House Palm Residential", "city": "UPLAND", "zip": "91786-5939", "plan_type": "DMC", "telehealth": "B", "cluster": 0, "is_noise": 0, "provider_count": 14}}, {"type": "Feature", "geometry": {"type": "Point", "coordinates": [-117.921487, 33.870442]}, "properties": {"site_id": 195, "name": "ADAS SUD Western Pacific Fullerton NP NTP", "city": "FULLERTON", "zip": "92832-1911", "plan_type": "DMC", "telehealth": "B", "cluster": 8, "is_noise": 0, "provider_count": 16}}, {"type": "Feature", "geometry": {"type": "Point", "coordinates": [-117.980108, 33.776879]}, "properties": {"site_id": 198, "name": "ADAS SUD Sober Solutions Residential", "city": "GARDEN GROVE", "zip": "92841-4622", "plan_type": "DMC", "telehealth": "B", "cluster": 7, "is_noise": 0, "provider_count": 11}}, {"type": "Feature", "geometry": {"type": "Point", "coordinates": [-117.723896, 33.568259]}, "properties": {"site_id": 199, "name": "ADAS SUD DUI/Drug Court Aliso Viejo", "city": "ALISO VIEJO", "zip": "92656-3014", "plan_type": "DMC", "telehealth": "B", "cluster": 1, "is_noise": 0, "provider_count": 5}}, {"type": "Feature", "geometry": {"type": "Point", "coordinates": [-117.989431, 33.757186]}, "properties": {"site_id": 200, "name": "ADAS SUD DUI/Drug Court Westminster", "city": "WESTMINSTER", "zip": "92683-4453", "plan_type": "DMC", "telehealth": "B", "cluster": 6, "is_noise": 0, "provider_count": 5}}, {"type": "Feature", "geometry": {"type": "Point", "coordinates": [-117.918997, 33.832958]}, "properties": {"site_id": 201, "name": "ADAS SUD DUI/Drug Court Anaheim", "city": "ANAHEIM", "zip": "92805-3700", "plan_type": "DMC", "telehealth": "B", "cluster": 10, "is_noise": 0, "provider_count": 6}}, {"type": "Feature", "geometry": {"type": "Point", "coordinates": [-117.867301, 33.749726]}, "properties": {"site_id": 202, "name": "ADAS SUD DUI/Drug Court Santa Ana", "city": "SANTA ANA", "zip": "92701-4134", "plan_type": "DMC", "telehealth": "B", "cluster": 12, "is_noise": 0, "provider_count": 12}}, {"type": "Feature", "geometry": {"type": "Point", "coordinates": [-117.88971, 33.67488]}, "properties": {"site_id": 203, "name": "ADAS SUD DUI/Drug Court Costa Mesa", "city": "COSTA MESA", "zip": "92626-5996", "plan_type": "DMC", "telehealth": "B", "cluster": 4, "is_noise": 0, "provider_count": 4}}, {"type": "Feature", "geometry": {"type": "Point", "coordinates": [-117.980108, 33.776879]}, "properties": {"site_id": 206, "name": "ADAS SUD Sober Solutions WM", "city": "GARDEN GROVE", "zip": "92841-4622", "plan_type": "DMC", "telehealth": "B", "cluster": 7, "is_noise": 0, "provider_count": 11}}, {"type": "Feature", "geometry": {"type": "Point", "coordinates": [-117.880977, 33.785011]}, "properties": {"site_id": 207, "name": "ADAS SUD HealthRIGHT 360 Residential", "city": "ORANGE", "zip": "92868-3355", "plan_type": "DMC", "telehealth": "B", "cluster": 15, "is_noise": 0, "provider_count": 27}}, {"type": "Feature", "geometry": {"type": "Point", "coordinates": [-117.880977, 33.785011]}, "properties": {"site_id": 208, "name": "ADAS SUD HealthRIGHT 360 WM", "city": "ORANGE", "zip": "92868-3346", "plan_type": "DMC", "telehealth": "B", "cluster": 15, "is_noise": 0, "provider_count": 23}}, {"type": "Feature", "geometry": {"type": "Point", "coordinates": [-117.653172, 34.096089]}, "properties": {"site_id": 209, "name": "ADAS SUD His House WM", "city": "UPLAND", "zip": "91786-5979", "plan_type": "DMC", "telehealth": "N", "cluster": 0, "is_noise": 0, "provider_count": 15}}, {"type": "Feature", "geometry": {"type": "Point", "coordinates": [-117.719102, 34.084288]}, "properties": {"site_id": 210, "name": "ADAS SUD New Creation WM", "city": "CLAREMONT", "zip": "91711-5444", "plan_type": "DMC", "telehealth": "N", "cluster": 0, "is_noise": 0, "provider_count": 14}}, {"type": "Feature", "geometry": {"type": "Point", "coordinates": [-117.58462, 33.667147]}, "properties": {"site_id": 211, "name": "ADAS SUD Vera's Sanctuary WM", "city": "TRABUCO CANYON", "zip": "92679-0975", "plan_type": "DMC", "telehealth": "N", "cluster": 2, "is_noise": 0, "provider_count": 24}}, {"type": "Feature", "geometry": {"type": "Point", "coordinates": [-117.931182, 33.834164]}, "properties": {"site_id": 212, "name": "ADAS SUD Lighthouse Residential", "city": "ANAHEIM", "zip": "92801-5941", "plan_type": "DMC", "telehealth": "B", "cluster": 10, "is_noise": 0, "provider_count": 38}}, {"type": "Feature", "geometry": {"type": "Point", "coordinates": [-117.931182, 33.834164]}, "properties": {"site_id": 213, "name": "ADAS SUD Lighthouse WM", "city": "ANAHEIM", "zip": "92801-5941", "plan_type": "DMC", "telehealth": "B", "cluster": 10, "is_noise": 0, "provider_count": 25}}, {"type": "Feature", "geometry": {"type": "Point", "coordinates": [-117.398327, 34.056003]}, "properties": {"site_id": 214, "name": "ADAS SUD Cedar House Residential", "city": "BLOOMINGTON", "zip": "92316-2636", "plan_type": "DMC", "telehealth": "N", "cluster": null, "is_noise": 1, "provider_count": 47}}, {"type": "Feature", "geometry": {"type": "Point", "coordinates": [-117.398327, 34.056003]}, "properties": {"site_id": 216, "name": "Azure Test Site", "city": "BLOOMINGTON", "zip": "92316-2636", "plan_type": "DMC", "telehealth": "B", "cluster": null, "is_noise": 1, "provider_count": 1}}]}